{"type":"FeatureCollection","totalFeatures":118,"features":[{"type":"Feature","id":"Voting_Locations.1","geometry":{"type":"Point","coordinates":[1392728.7299999995,562654.3499999302]},"geometry_name":"geom","properties":{"PRECINCT":"1-01","LOCATION":"ST AUGUSTINE SCHOOL","ROOM":"GYM","ADDRESS":"5990 OLD WASHINGTON RD","CITY":"Elkridge","ZIP":"21075"}},{"type":"Feature","id":"Voting_Locations.2","geometry":{"type":"Point","coordinates":[1389147.1200000017,563041.8299999188]},"geometry_name":"geom","properties":{"PRECINCT":"1-02","LOCATION":"ELKRIDGE LANDING MIDDLE SCHOOL","ROOM":"GYM","ADDRESS":"7085 MONTGOMERY RD","CITY":"Elkridge","ZIP":"21075"}},{"type":"Feature","id":"Voting_Locations.3","geometry":{"type":"Point","coordinates":[1372836.3600000003,557618.4749999247]},"geometry_name":"geom","properties":{"PRECINCT":"1-03","LOCATION":"MAYFIELD WOODS MIDDLE SCHOOL","ROOM":"CAFETERIA","ADDRESS":"7950 RED BARN WAY","CITY":"Elkridge","ZIP":"21075"}},{"type":"Feature","id":"Voting_Locations.4","geometry":{"type":"Point","coordinates":[1376378.19,569838.9599999278]},"geometry_name":"geom","properties":{"PRECINCT":"1-04","LOCATION":"ILCHESTER ELEMENTARY SCHOOL","ROOM":"CAFETERIA","ADDRESS":"4981 ILCHESTER RD","CITY":"Ellicott City","ZIP":"21043"}},{"type":"Feature","id":"Voting_Locations.5","geometry":{"type":"Point","coordinates":[1370297.1900000018,574824.1949999264]},"geometry_name":"geom","properties":{"PRECINCT":"1-05","LOCATION":"WORTHINGTON ELEMENTARY SCHOOL","ROOM":"GYM","ADDRESS":"4570 ROUNDHILL RD","CITY":"Ellicott City","ZIP":"21043"}},{"type":"Feature","id":"Voting_Locations.6","geometry":{"type":"Point","coordinates":[1372807.0799999996,552907.754999926]},"geometry_name":"geom","properties":{"PRECINCT":"1-06","LOCATION":"DEEP RUN ELEMENTARY SCHOOL","ROOM":"CAFETERIA","ADDRESS":"6925 OLD WATERLOO RD","CITY":"Elkridge","ZIP":"21075"}},{"type":"Feature","id":"Voting_Locations.7","geometry":{"type":"Point","coordinates":[1372836.3600000003,557618.4749999247]},"geometry_name":"geom","properties":{"PRECINCT":"1-07","LOCATION":"MAYFIELD WOODS MIDDLE SCHOOL","ROOM":"CAFETERIA","ADDRESS":"7950 RED BARN WAY","CITY":"Elkridge","ZIP":"21075"}},{"type":"Feature","id":"Voting_Locations.8","geometry":{"type":"Point","coordinates":[1389141.2399999986,563519.7599999255]},"geometry_name":"geom","properties":{"PRECINCT":"1-08","LOCATION":"ELKRIDGE ELEMENTARY SCHOOL","ROOM":"CAFETERIA","ADDRESS":"7075 MONTGOMERY RD","CITY":"Elkridge","ZIP":"21075"}},{"type":"Feature","id":"Voting_Locations.9","geometry":{"type":"Point","coordinates":[1372836.3600000003,557618.4749999247]},"geometry_name":"geom","properties":{"PRECINCT":"1-09","LOCATION":"MAYFIELD WOODS MIDDLE SCHOOL","ROOM":"GYM","ADDRESS":"7950 RED BARN WAY","CITY":"Elkridge","ZIP":"21075"}},{"type":"Feature","id":"Voting_Locations.10","geometry":{"type":"Point","coordinates":[1365391.560000002,568098.7799999318]},"geometry_name":"geom","properties":{"PRECINCT":"1-10","LOCATION":"HOWARD HIGH SCHOOL","ROOM":"AUDITORIUM LOBBY","ADDRESS":"8700 OLD ANNAPOLIS RD","CITY":"Ellicott City","ZIP":"21043"}},{"type":"Feature","id":"Voting_Locations.11","geometry":{"type":"Point","coordinates":[1376378.19,569838.9599999278]},"geometry_name":"geom","properties":{"PRECINCT":"1-11","LOCATION":"ILCHESTER ELEMENTARY SCHOOL","ROOM":"GYM","ADDRESS":"4981 ILCHESTER RD","CITY":"Ellicott City","ZIP":"21043"}},{"type":"Feature","id":"Voting_Locations.12","geometry":{"type":"Point","coordinates":[1377887.4299999992,563969.5799999257]},"geometry_name":"geom","properties":{"PRECINCT":"1-12","LOCATION":"ROCKBURN ELEMENTARY SCHOOL","ROOM":"GYM","ADDRESS":"6145 MONTGOMERY RD","CITY":"Elkridge","ZIP":"21075"}},{"type":"Feature","id":"Voting_Locations.13","geometry":{"type":"Point","coordinates":[1389141.2399999986,563519.7599999255]},"geometry_name":"geom","properties":{"PRECINCT":"1-13","LOCATION":"ELKRIDGE ELEMENTARY SCHOOL","ROOM":"GYM","ADDRESS":"7075 MONTGOMERY RD","CITY":"Elkridge","ZIP":"21075"}},{"type":"Feature","id":"Voting_Locations.14","geometry":{"type":"Point","coordinates":[1377887.4299999992,563969.5799999257]},"geometry_name":"geom","properties":{"PRECINCT":"1-14","LOCATION":"ROCKBURN ELEMENTARY SCHOOL","ROOM":"GYM","ADDRESS":"6145 MONTGOMERY RD","CITY":"Elkridge","ZIP":"21075"}},{"type":"Feature","id":"Voting_Locations.15","geometry":{"type":"Point","coordinates":[1372807.0799999996,552907.754999926]},"geometry_name":"geom","properties":{"PRECINCT":"1-15","LOCATION":"DEEP RUN ELEMENTARY SCHOOL","ROOM":"GYM","ADDRESS":"6925 OLD WATERLOO RD","CITY":"Elkridge","ZIP":"21075"}},{"type":"Feature","id":"Voting_Locations.16","geometry":{"type":"Point","coordinates":[1365603.4500000014,587272.0799999255]},"geometry_name":"geom","properties":{"PRECINCT":"2-01","LOCATION":"PARK VIEW AT ELLICOTT CITY","ROOM":"DAY ROOM","ADDRESS":"8720 RIDGE RD","CITY":"Ellicott City","ZIP":"21043"}},{"type":"Feature","id":"Voting_Locations.17","geometry":{"type":"Point","coordinates":[1365970.469999999,576711.2999999268]},"geometry_name":"geom","properties":{"PRECINCT":"2-02","LOCATION":"ELLICOTT MILLS MIDDLE SCHOOL","ROOM":"CAFETERIA","ADDRESS":"4445 MONTGOMERY RD","CITY":"Ellicott City","ZIP":"21043"}},{"type":"Feature","id":"Voting_Locations.18","geometry":{"type":"Point","coordinates":[1365970.469999999,576711.2999999268]},"geometry_name":"geom","properties":{"PRECINCT":"2-03","LOCATION":"ELLICOTT MILLS MIDDLE SCHOOL","ROOM":"GYM","ADDRESS":"4445 MONTGOMERY RD","CITY":"Ellicott City","ZIP":"21043"}},{"type":"Feature","id":"Voting_Locations.19","geometry":{"type":"Point","coordinates":[1365391.560000002,568098.7799999318]},"geometry_name":"geom","properties":{"PRECINCT":"2-04","LOCATION":"HOWARD HIGH SCHOOL","ROOM":"GYM","ADDRESS":"8700 OLD ANNAPOLIS RD","CITY":"Ellicott City","ZIP":"21043"}},{"type":"Feature","id":"Voting_Locations.20","geometry":{"type":"Point","coordinates":[1351523.9699999988,582579.5099999225]},"geometry_name":"geom","properties":{"PRECINCT":"2-05","LOCATION":"CENTENNIAL LANE ELEMENTARY SCHOOL","ROOM":"CAFETERIA","ADDRESS":"3825 CENTENNIAL LN","CITY":"Ellicott City","ZIP":"21042"}},{"type":"Feature","id":"Voting_Locations.21","geometry":{"type":"Point","coordinates":[1359386.9700000016,591469.4699999244]},"geometry_name":"geom","properties":{"PRECINCT":"2-06","LOCATION":"ST JOHNS LANE ELEMENTARY SCHOOL","ROOM":"CAFETERIA","ADDRESS":"2960 SAINT JOHNS LN","CITY":"Ellicott City","ZIP":"21042"}},{"type":"Feature","id":"Voting_Locations.22","geometry":{"type":"Point","coordinates":[1357580.3699999996,594579.5999999205]},"geometry_name":"geom","properties":{"PRECINCT":"2-07","LOCATION":"MT HEBRON HIGH SCHOOL","ROOM":"CAFETERIA","ADDRESS":"9440 OLD FREDERICK RD","CITY":"Ellicott City","ZIP":"21042"}},{"type":"Feature","id":"Voting_Locations.23","geometry":{"type":"Point","coordinates":[1363862.4000000006,595797.9749999265]},"geometry_name":"geom","properties":{"PRECINCT":"2-08","LOCATION":"HOLLIFIELD STATION ELEMENTARY SCHOOL","ROOM":"CAFETERIA","ADDRESS":"8701 STONEHOUSE DR","CITY":"Ellicott City","ZIP":"21043"}},{"type":"Feature","id":"Voting_Locations.24","geometry":{"type":"Point","coordinates":[1362658.0799999987,591620.1899999211]},"geometry_name":"geom","properties":{"PRECINCT":"2-09","LOCATION":"THE HEARTLANDS","ROOM":"CAFETERIA","ADDRESS":"3004 NORTH RIDGE RD","CITY":"Ellicott City","ZIP":"21043"}},{"type":"Feature","id":"Voting_Locations.25","geometry":{"type":"Point","coordinates":[1349521.8599999987,577681.1849999324]},"geometry_name":"geom","properties":{"PRECINCT":"2-10","LOCATION":"CENTENNIAL HIGH SCHOOL","ROOM":"CAFETERIA","ADDRESS":"4300 CENTENNIAL LN","CITY":"Ellicott City","ZIP":"21042"}},{"type":"Feature","id":"Voting_Locations.26","geometry":{"type":"Point","coordinates":[1349495.22,596714.5949999255]},"geometry_name":"geom","properties":{"PRECINCT":"2-11","LOCATION":"WAVERLY ELEMENTARY SCHOOL","ROOM":"GYM","ADDRESS":"10220 WETHERBURN RD","CITY":"Ellicott City","ZIP":"21042"}},{"type":"Feature","id":"Voting_Locations.27","geometry":{"type":"Point","coordinates":[1358040.7199999988,584624.9399999246]},"geometry_name":"geom","properties":{"PRECINCT":"2-12","LOCATION":"ELLICOTT CITY SENIOR CENTER","ROOM":"MEETING ROOM","ADDRESS":"9401 FREDERICK RD","CITY":"Ellicott City","ZIP":"21042"}},{"type":"Feature","id":"Voting_Locations.28","geometry":{"type":"Point","coordinates":[1359907.619999999,579026.2649999235]},"geometry_name":"geom","properties":{"PRECINCT":"2-13","LOCATION":"DUNLOGGIN MIDDLE SCHOOL","ROOM":"CAFETERIA","ADDRESS":"9129 NORTHFIELD RD","CITY":"Ellicott City","ZIP":"21042"}},{"type":"Feature","id":"Voting_Locations.29","geometry":{"type":"Point","coordinates":[1359907.619999999,579026.2649999235]},"geometry_name":"geom","properties":{"PRECINCT":"2-14","LOCATION":"DUNLOGGIN MIDDLE SCHOOL","ROOM":"CAFETERIA","ADDRESS":"9129 NORTHFIELD RD","CITY":"Ellicott City","ZIP":"21042"}},{"type":"Feature","id":"Voting_Locations.30","geometry":{"type":"Point","coordinates":[1351523.9699999988,582579.5099999225]},"geometry_name":"geom","properties":{"PRECINCT":"2-15","LOCATION":"CENTENNIAL LANE ELEMENTARY SCHOOL","ROOM":"GYM","ADDRESS":"3825 CENTENNIAL LN","CITY":"Ellicott City","ZIP":"21042"}},{"type":"Feature","id":"Voting_Locations.31","geometry":{"type":"Point","coordinates":[1370297.1900000018,574824.1949999264]},"geometry_name":"geom","properties":{"PRECINCT":"2-16","LOCATION":"WORTHINGTON ELEMENTARY SCHOOL","ROOM":"CAFETERIA","ADDRESS":"4570 ROUNDHILL RD","CITY":"Ellicott City","ZIP":"21043"}},{"type":"Feature","id":"Voting_Locations.32","geometry":{"type":"Point","coordinates":[1349856.660000001,578560.9349999246]},"geometry_name":"geom","properties":{"PRECINCT":"2-17","LOCATION":"BURLEIGH MANOR MIDDLE SCHOOL","ROOM":"CAFETERIA","ADDRESS":"4200 CENTENNIAL LN","CITY":"Ellicott City","ZIP":"21042"}},{"type":"Feature","id":"Voting_Locations.33","geometry":{"type":"Point","coordinates":[1357580.3699999996,594579.5999999205]},"geometry_name":"geom","properties":{"PRECINCT":"2-18","LOCATION":"MT HEBRON HIGH SCHOOL","ROOM":"GYM","ADDRESS":"9440 OLD FREDERICK RD","CITY":"Ellicott City","ZIP":"21042"}},{"type":"Feature","id":"Voting_Locations.34","geometry":{"type":"Point","coordinates":[1349495.22,596714.5949999255]},"geometry_name":"geom","properties":{"PRECINCT":"2-19","LOCATION":"WAVERLY ELEMENTARY SCHOOL","ROOM":"CAFETERIA","ADDRESS":"10220 WETHERBURN RD","CITY":"Ellicott City","ZIP":"21042"}},{"type":"Feature","id":"Voting_Locations.35","geometry":{"type":"Point","coordinates":[1360389.659999999,578798.5799999317]},"geometry_name":"geom","properties":{"PRECINCT":"2-20","LOCATION":"NORTHFIELD ELEMENTARY SCHOOL","ROOM":"CAFETERIA","ADDRESS":"9125 NORTHFIELD RD","CITY":"Ellicott City","ZIP":"21042"}},{"type":"Feature","id":"Voting_Locations.36","geometry":{"type":"Point","coordinates":[1360389.659999999,578798.5799999317]},"geometry_name":"geom","properties":{"PRECINCT":"2-21","LOCATION":"NORTHFIELD ELEMENTARY SCHOOL","ROOM":"CAFETERIA","ADDRESS":"9125 NORTHFIELD RD","CITY":"Ellicott City","ZIP":"21042"}},{"type":"Feature","id":"Voting_Locations.37","geometry":{"type":"Point","coordinates":[1349521.8599999987,577681.1849999324]},"geometry_name":"geom","properties":{"PRECINCT":"2-22","LOCATION":"CENTENNIAL HIGH SCHOOL","ROOM":"CAFETERIA","ADDRESS":"4300 CENTENNIAL LN","CITY":"Ellicott City","ZIP":"21042"}},{"type":"Feature","id":"Voting_Locations.38","geometry":{"type":"Point","coordinates":[1363862.4000000006,595797.9749999265]},"geometry_name":"geom","properties":{"PRECINCT":"2-23","LOCATION":"HOLLIFIELD STATION ELEMENTARY SCHOOL","ROOM":"GYM","ADDRESS":"8701 STONEHOUSE DR","CITY":"Ellicott City","ZIP":"21043"}},{"type":"Feature","id":"Voting_Locations.39","geometry":{"type":"Point","coordinates":[1364085.1199999996,594172.7999999296]},"geometry_name":"geom","properties":{"PRECINCT":"2-24","LOCATION":"PATAPSCO MIDDLE SCHOOL","ROOM":"GYM","ADDRESS":"8885 OLD FREDERICK RD","CITY":"Ellicott City","ZIP":"21043"}},{"type":"Feature","id":"Voting_Locations.40","geometry":{"type":"Point","coordinates":[1376690.4599999993,570278.534999926]},"geometry_name":"geom","properties":{"PRECINCT":"2-25","LOCATION":"BONNIE BRANCH MIDDLE SCHOOL","ROOM":"CAFETERIA","ADDRESS":"4979 ILCHESTER RD","CITY":"Ellicott City","ZIP":"21043"}},{"type":"Feature","id":"Voting_Locations.41","geometry":{"type":"Point","coordinates":[1327637.3099999991,595481.0099999233]},"geometry_name":"geom","properties":{"PRECINCT":"3-01","LOCATION":"WEST FRIENDSHIP ELEMENTARY SCHOOL","ROOM":"CAFETERIA","ADDRESS":"12500 FREDERICK RD","CITY":"West Friendship","ZIP":"21794"}},{"type":"Feature","id":"Voting_Locations.42","geometry":{"type":"Point","coordinates":[1330198.7100000011,602486.8049999197]},"geometry_name":"geom","properties":{"PRECINCT":"3-02","LOCATION":"MOUNT VIEW MIDDLE SCHOOL","ROOM":"CAFETERIA","ADDRESS":"12101 WOODFORD DR","CITY":"Marriottsville","ZIP":"21104"}},{"type":"Feature","id":"Voting_Locations.43","geometry":{"type":"Point","coordinates":[1336731.5700000005,591238.8449999237]},"geometry_name":"geom","properties":{"PRECINCT":"3-03","LOCATION":"MANOR WOODS ELEMENTARY SCHOOL","ROOM":"CAFETERIA","ADDRESS":"11575 FREDERICK RD","CITY":"Ellicott City","ZIP":"21042"}},{"type":"Feature","id":"Voting_Locations.44","geometry":{"type":"Point","coordinates":[1330198.7100000011,602486.8049999197]},"geometry_name":"geom","properties":{"PRECINCT":"3-05","LOCATION":"MOUNT VIEW MIDDLE SCHOOL","ROOM":"GYM","ADDRESS":"12101 WOODFORD DR","CITY":"Marriottsville","ZIP":"21104"}},{"type":"Feature","id":"Voting_Locations.45","geometry":{"type":"Point","coordinates":[1316923.47,582544.9649999407]},"geometry_name":"geom","properties":{"PRECINCT":"3-06","LOCATION":"FOLLY QUARTER MIDDLE SCHOOL","ROOM":"CAFETERIA","ADDRESS":"13500 TRIADELPHIA RD","CITY":"Ellicott City","ZIP":"21042"}},{"type":"Feature","id":"Voting_Locations.46","geometry":{"type":"Point","coordinates":[1291177.2299999984,607907.8199999195]},"geometry_name":"geom","properties":{"PRECINCT":"4-01","LOCATION":"LISBON VOLUNTEER FIRE DEPARTMENT","ROOM":"HALL","ADDRESS":"1330 WOODBINE RD","CITY":"Woodbine","ZIP":"21797"}},{"type":"Feature","id":"Voting_Locations.47","geometry":{"type":"Point","coordinates":[1311751.2300000014,585890.114999921]},"geometry_name":"geom","properties":{"PRECINCT":"4-02","LOCATION":"GLENELG HIGH SCHOOL","ROOM":"CAFETERIA","ADDRESS":"14025 BURNTWOODS RD","CITY":"Glenelg","ZIP":"21737"}},{"type":"Feature","id":"Voting_Locations.48","geometry":{"type":"Point","coordinates":[1292760.839999999,607062.899999933]},"geometry_name":"geom","properties":{"PRECINCT":"4-03","LOCATION":"LISBON ELEMENTARY SCHOOL","ROOM":"CAFETERIA","ADDRESS":"15901 FREDERICK RD","CITY":"Woodbine","ZIP":"21797"}},{"type":"Feature","id":"Voting_Locations.49","geometry":{"type":"Point","coordinates":[1292760.839999999,607062.899999933]},"geometry_name":"geom","properties":{"PRECINCT":"4-04","LOCATION":"LISBON ELEMENTARY SCHOOL","ROOM":"GYM","ADDRESS":"15901 FREDERICK RD","CITY":"Woodbine","ZIP":"21797"}},{"type":"Feature","id":"Voting_Locations.50","geometry":{"type":"Point","coordinates":[1282455.8399999994,609260.8049999275]},"geometry_name":"geom","properties":{"PRECINCT":"4-05","LOCATION":"ST MICHAEL'S CATHOLIC CHURCH","ROOM":"MULTI-PURPOSE","ADDRESS":"1125 SAINT MICHAELS RD","CITY":"Mount Airy","ZIP":"21771"}},{"type":"Feature","id":"Voting_Locations.51","geometry":{"type":"Point","coordinates":[1305478.260000001,593971.7399999239]},"geometry_name":"geom","properties":{"PRECINCT":"4-06","LOCATION":"GLENWOOD MIDDLE SCHOOL","ROOM":"CAFETERIA","ADDRESS":"2680 RT 97","CITY":"Glenwood","ZIP":"21738"}},{"type":"Feature","id":"Voting_Locations.52","geometry":{"type":"Point","coordinates":[1332420.3300000017,565228.3349999301]},"geometry_name":"geom","properties":{"PRECINCT":"5-01","LOCATION":"CLARKSVILLE ELEMENTARY SCHOOL","ROOM":"CAFETERIA","ADDRESS":"12041 CLARKSVILLE PK","CITY":"Clarksville","ZIP":"21029"}},{"type":"Feature","id":"Voting_Locations.53","geometry":{"type":"Point","coordinates":[1345890.1800000013,568118.0999999293]},"geometry_name":"geom","properties":{"PRECINCT":"5-02","LOCATION":"LONGFELLOW ELEMENTARY SCHOOL","ROOM":"GYM","ADDRESS":"5470 HESPERUS DR","CITY":"Columbia","ZIP":"21044"}},{"type":"Feature","id":"Voting_Locations.54","geometry":{"type":"Point","coordinates":[1353299.8500000006,566990.1749999274]},"geometry_name":"geom","properties":{"PRECINCT":"5-03","LOCATION":"VANTAGE HOUSE RETIREMENT CENTER","ROOM":"AUDITORIUM","ADDRESS":"5400 VANTAGE POINT RD","CITY":"Columbia","ZIP":"21044"}},{"type":"Feature","id":"Voting_Locations.55","geometry":{"type":"Point","coordinates":[1348330.139999999,564770.0249999283]},"geometry_name":"geom","properties":{"PRECINCT":"5-04","LOCATION":"WILDE LAKE HIGH SCHOOL","ROOM":"CAFETERIA","ADDRESS":"5460 TRUMPETER RD","CITY":"Columbia","ZIP":"21044"}},{"type":"Feature","id":"Voting_Locations.56","geometry":{"type":"Point","coordinates":[1333199.4000000013,555111.5249999224]},"geometry_name":"geom","properties":{"PRECINCT":"5-05","LOCATION":"POINTERS RUN ELEMENTARY SCHOOL","ROOM":"CAFETERIA","ADDRESS":"6600 SOUTH TROTTER RD","CITY":"Clarksville","ZIP":"21029"}},{"type":"Feature","id":"Voting_Locations.57","geometry":{"type":"Point","coordinates":[1336175.4900000002,540619.9649999217]},"geometry_name":"geom","properties":{"PRECINCT":"5-06","LOCATION":"FULTON ELEMENTARY SCHOOL","ROOM":"CAFETERIA","ADDRESS":"11600 SCAGGSVILLE RD","CITY":"Fulton","ZIP":"20759"}},{"type":"Feature","id":"Voting_Locations.58","geometry":{"type":"Point","coordinates":[1343862.3300000008,564527.6999999323]},"geometry_name":"geom","properties":{"PRECINCT":"5-07","LOCATION":"SWANSFIELD ELEMENTARY SCHOOL","ROOM":"CAFETERIA","ADDRESS":"5610 CEDAR LN","CITY":"Columbia","ZIP":"21044"}},{"type":"Feature","id":"Voting_Locations.59","geometry":{"type":"Point","coordinates":[1349955.2999999984,566105.4449999299]},"geometry_name":"geom","properties":{"PRECINCT":"5-08","LOCATION":"BRYANT WOODS ELEMENTARY SCHOOL","ROOM":"CAFETERIA","ADDRESS":"5450 BLUE HERON LN","CITY":"Columbia","ZIP":"21044"}},{"type":"Feature","id":"Voting_Locations.60","geometry":{"type":"Point","coordinates":[1344079.4700000002,567416.2799999279]},"geometry_name":"geom","properties":{"PRECINCT":"5-09","LOCATION":"HARPER'S CHOICE MIDDLE SCHOOL","ROOM":"CAFETERIA","ADDRESS":"5450 BEAVERKILL RD","CITY":"Columbia","ZIP":"21044"}},{"type":"Feature","id":"Voting_Locations.61","geometry":{"type":"Point","coordinates":[1334029.410000001,554984.2049999209]},"geometry_name":"geom","properties":{"PRECINCT":"5-10","LOCATION":"CLARKSVILLE MIDDLE SCHOOL","ROOM":"CAFETERIA","ADDRESS":"6535 SOUTH TROTTER RD","CITY":"Clarksville","ZIP":"21029"}},{"type":"Feature","id":"Voting_Locations.62","geometry":{"type":"Point","coordinates":[1324038.4199999997,546331.3049999322]},"geometry_name":"geom","properties":{"PRECINCT":"5-11","LOCATION":"SCHOOLEY MILL PARK","ROOM":"MULTI-PURPOSE","ADDRESS":"12975 HALL SHOP RD","CITY":"Highland","ZIP":"20777"}},{"type":"Feature","id":"Voting_Locations.63","geometry":{"type":"Point","coordinates":[1345257.4499999997,561052.604999937]},"geometry_name":"geom","properties":{"PRECINCT":"5-12","LOCATION":"THE HAWTHORN NEIGHBOR CENTER","ROOM":"COMM ROOM","ADDRESS":"6175 SUNNY SPRING","CITY":"Columbia","ZIP":"21044"}},{"type":"Feature","id":"Voting_Locations.64","geometry":{"type":"Point","coordinates":[1346116.4099999985,554339.7599999321]},"geometry_name":"geom","properties":{"PRECINCT":"5-13","LOCATION":"ALTHOLTON HIGH SCHOOL","ROOM":"CAFETERIA","ADDRESS":"6520 FREETOWN RD","CITY":"Columbia","ZIP":"21044"}},{"type":"Feature","id":"Voting_Locations.65","geometry":{"type":"Point","coordinates":[1345890.1800000013,568118.0999999293]},"geometry_name":"geom","properties":{"PRECINCT":"5-14","LOCATION":"LONGFELLOW ELEMENTARY SCHOOL","ROOM":"GYM","ADDRESS":"5470 HESPERUS DR","CITY":"Columbia","ZIP":"21044"}},{"type":"Feature","id":"Voting_Locations.66","geometry":{"type":"Point","coordinates":[1348282.1400000004,556326.6599999263]},"geometry_name":"geom","properties":{"PRECINCT":"5-15","LOCATION":"CLEMENS CROSSING ELEMENTARY SCHOOL","ROOM":"GYM","ADDRESS":"10320 QUARTERSTAFF RD","CITY":"Columbia","ZIP":"21044"}},{"type":"Feature","id":"Voting_Locations.67","geometry":{"type":"Point","coordinates":[1352685.2699999984,568966.8149999267]},"geometry_name":"geom","properties":{"PRECINCT":"5-16","LOCATION":"RUNNING BROOK ELEMENTARY SCHOOL","ROOM":"CAFETERIA","ADDRESS":"5215 WEST RUNNING BROOK RD","CITY":"Columbia","ZIP":"21044"}},{"type":"Feature","id":"Voting_Locations.69","geometry":{"type":"Point","coordinates":[1347299.6700000006,565005.0149999225]},"geometry_name":"geom","properties":{"PRECINCT":"5-18","LOCATION":"WILDE LAKE MIDDLE SCHOOL","ROOM":"GYM","ADDRESS":"10481 CROSS FOX LN","CITY":"Columbia","ZIP":"21044"}},{"type":"Feature","id":"Voting_Locations.70","geometry":{"type":"Point","coordinates":[1316976.4499999986,573337.1699999316]},"geometry_name":"geom","properties":{"PRECINCT":"5-19","LOCATION":"DAYTON OAKS ELEMENTARY SCHOOL","ROOM":"CAFETERIA","ADDRESS":"4691 TEN OAKS RD","CITY":"Dayton","ZIP":"21036"}},{"type":"Feature","id":"Voting_Locations.71","geometry":{"type":"Point","coordinates":[1336971.8400000008,540814.8749999249]},"geometry_name":"geom","properties":{"PRECINCT":"5-20","LOCATION":"RESERVOIR HIGH SCHOOL","ROOM":"CAFETERIA","ADDRESS":"11550 SCAGGSVILLE RD","CITY":"Fulton","ZIP":"20759"}},{"type":"Feature","id":"Voting_Locations.72","geometry":{"type":"Point","coordinates":[1343862.3300000008,564527.6999999323]},"geometry_name":"geom","properties":{"PRECINCT":"5-21","LOCATION":"SWANSFIELD ELEMENTARY SCHOOL","ROOM":"GYM","ADDRESS":"5610 CEDAR LN","CITY":"Columbia","ZIP":"21044"}},{"type":"Feature","id":"Voting_Locations.73","geometry":{"type":"Point","coordinates":[1334029.410000001,554984.2049999209]},"geometry_name":"geom","properties":{"PRECINCT":"5-22","LOCATION":"CLARKSVILLE MIDDLE SCHOOL","ROOM":"GYM","ADDRESS":"6535 SOUTH TROTTER RD","CITY":"Clarksville","ZIP":"21029"}},{"type":"Feature","id":"Voting_Locations.74","geometry":{"type":"Point","coordinates":[1332510.4799999984,563958.1649999311]},"geometry_name":"geom","properties":{"PRECINCT":"5-23","LOCATION":"RIVER HILL HIGH SCHOOL","ROOM":"CAFETERIA","ADDRESS":"12101 CLARKSVILLE PK","CITY":"Clarksville","ZIP":"21029"}},{"type":"Feature","id":"Voting_Locations.75","geometry":{"type":"Point","coordinates":[1357724.369999999,534826.9799999273]},"geometry_name":"geom","properties":{"PRECINCT":"6-01","LOCATION":"FOREST RIDGE ELEMENTARY SCHOOL","ROOM":"GYM","ADDRESS":"8925 LINCOLN ST","CITY":"Savage","ZIP":"20763"}},{"type":"Feature","id":"Voting_Locations.76","geometry":{"type":"Point","coordinates":[1356424.350000001,532877.5349999247]},"geometry_name":"geom","properties":{"PRECINCT":"6-02","LOCATION":"HOPE BAPTIST CHURCH","ROOM":"MEETING ROOM","ADDRESS":"8801 STEPHENS RD","CITY":"Laurel","ZIP":"20723"}},{"type":"Feature","id":"Voting_Locations.77","geometry":{"type":"Point","coordinates":[1346655.6599999985,539660.594999926]},"geometry_name":"geom","properties":{"PRECINCT":"6-03","LOCATION":"HAMMOND MIDDLE SCHOOL","ROOM":"GYM","ADDRESS":"8100 ALADDIN DR","CITY":"Laurel","ZIP":"20723"}},{"type":"Feature","id":"Voting_Locations.78","geometry":{"type":"Point","coordinates":[1351105.4699999986,553286.4599999309]},"geometry_name":"geom","properties":{"PRECINCT":"6-04","LOCATION":"ATHOLTON ELM SCHOOL","ROOM":"CAFETERIA","ADDRESS":"6700 SENECA DR","CITY":"Columbia","ZIP":"21046"}},{"type":"Feature","id":"Voting_Locations.79","geometry":{"type":"Point","coordinates":[1356659.939999999,561185.4749999312]},"geometry_name":"geom","properties":{"PRECINCT":"6-05","LOCATION":"OAKLAND MILLS MIDDLE SCHOOL","ROOM":"CAFETERIA","ADDRESS":"9540 KILIMANJARO RD","CITY":"Columbia","ZIP":"21045"}},{"type":"Feature","id":"Voting_Locations.80","geometry":{"type":"Point","coordinates":[1359206.0999999982,569009.2499999327]},"geometry_name":"geom","properties":{"PRECINCT":"6-06","LOCATION":"THUNDER HILL ELM SCHOOL","ROOM":"CAFETERIA","ADDRESS":"9357 MELLENBROOK RD","CITY":"Columbia","ZIP":"21045"}},{"type":"Feature","id":"Voting_Locations.81","geometry":{"type":"Point","coordinates":[1368867.2399999984,546768.5399999266]},"geometry_name":"geom","properties":{"PRECINCT":"6-07","LOCATION":"RIDGLEY'S RUN COMMUNITY CENTER","ROOM":"ALL PURPOSE ROOM","ADDRESS":"8400 MISSION RD","CITY":"Jessup","ZIP":"20794"}},{"type":"Feature","id":"Voting_Locations.82","geometry":{"type":"Point","coordinates":[1356243.7799999984,560207.9699999325]},"geometry_name":"geom","properties":{"PRECINCT":"6-08","LOCATION":"STEVENS FOREST ELEMENTARY SCHOOL","ROOM":"CAFETERIA","ADDRESS":"6045 STEVENS FOREST RD","CITY":"Columbia","ZIP":"21045"}},{"type":"Feature","id":"Voting_Locations.83","geometry":{"type":"Point","coordinates":[1356652.6199999992,563234.6999999254]},"geometry_name":"geom","properties":{"PRECINCT":"6-09","LOCATION":"TALBOTT SPRINGS ELEMENTARY SCHOOL","ROOM":"CAFETERIA","ADDRESS":"9550 BASKET RING RD","CITY":"Columbia","ZIP":"21045"}},{"type":"Feature","id":"Voting_Locations.84","geometry":{"type":"Point","coordinates":[1365391.560000002,568098.7799999318]},"geometry_name":"geom","properties":{"PRECINCT":"6-10","LOCATION":"HOWARD HIGH SCHOOL","ROOM":"CAFETERIA","ADDRESS":"8700 OLD ANNAPOLIS RD","CITY":"Ellicott City","ZIP":"21043"}},{"type":"Feature","id":"Voting_Locations.85","geometry":{"type":"Point","coordinates":[1361560.8899999983,560435.3699999236]},"geometry_name":"geom","properties":{"PRECINCT":"6-11","LOCATION":"JEFFERS HILL ELEMENTARY SCHOOL","ROOM":"CAFETERIA","ADDRESS":"6000 TAMAR DR","CITY":"Columbia","ZIP":"21045"}},{"type":"Feature","id":"Voting_Locations.86","geometry":{"type":"Point","coordinates":[1356718.5000000014,555329.2349999293]},"geometry_name":"geom","properties":{"PRECINCT":"6-12","LOCATION":"LAKE ELKHORN MIDDLE SCHOOL","ROOM":"CAFETERIA","ADDRESS":"6680 CRADLEROCK WAY","CITY":"Columbia","ZIP":"21045"}},{"type":"Feature","id":"Voting_Locations.87","geometry":{"type":"Point","coordinates":[1360600.3799999992,547322.2499999246]},"geometry_name":"geom","properties":{"PRECINCT":"6-13","LOCATION":"GUILFORD ELEMENTARY SCHOOL","ROOM":"CAFETERIA","ADDRESS":"7335 OAKLAND MILLS RD","CITY":"Columbia","ZIP":"21046"}},{"type":"Feature","id":"Voting_Locations.88","geometry":{"type":"Point","coordinates":[1363860.36,566522.4899999275]},"geometry_name":"geom","properties":{"PRECINCT":"6-14","LOCATION":"PHELPS LUCK ELEMENTARY SCHOOL","ROOM":"CAFETERIA","ADDRESS":"5370 OLDSTONE CT","CITY":"Columbia","ZIP":"21045"}},{"type":"Feature","id":"Voting_Locations.89","geometry":{"type":"Point","coordinates":[1357149.8699999996,528468.5549999219]},"geometry_name":"geom","properties":{"PRECINCT":"6-15","LOCATION":"LAUREL WOODS ELEMENTARY SCHOOL","ROOM":"GYM","ADDRESS":"9250 NORTH LAUREL RD","CITY":"Laurel","ZIP":"20723"}},{"type":"Feature","id":"Voting_Locations.90","geometry":{"type":"Point","coordinates":[1363860.36,566522.4899999275]},"geometry_name":"geom","properties":{"PRECINCT":"6-16","LOCATION":"PHELPS LUCK ELEMENTARY SCHOOL","ROOM":"GYM","ADDRESS":"5370 OLDSTONE CT","CITY":"Columbia","ZIP":"21045"}},{"type":"Feature","id":"Voting_Locations.91","geometry":{"type":"Point","coordinates":[1357029.0000000014,554167.6799999229]},"geometry_name":"geom","properties":{"PRECINCT":"6-17","LOCATION":"OWEN BROWN PLACE","ROOM":"MEETING ROOM","ADDRESS":"7080 CRADLEROCK WAY","CITY":"Columbia","ZIP":"21045"}},{"type":"Feature","id":"Voting_Locations.92","geometry":{"type":"Point","coordinates":[1351867.5600000003,546652.6499999217]},"geometry_name":"geom","properties":{"PRECINCT":"6-18","LOCATION":"HAMMOND HIGH SCHOOL","ROOM":"CAFETERIA","ADDRESS":"8800 GUILFORD RD","CITY":"Columbia","ZIP":"21046"}},{"type":"Feature","id":"Voting_Locations.93","geometry":{"type":"Point","coordinates":[1360600.3500000015,547322.2649999219]},"geometry_name":"geom","properties":{"PRECINCT":"6-19","LOCATION":"GUILFORD ELEMENTARY SCHOOL","ROOM":"GYM","ADDRESS":"7335 OAKLAND MILLS RD","CITY":"Columbia","ZIP":"21046"}},{"type":"Feature","id":"Voting_Locations.94","geometry":{"type":"Point","coordinates":[1360999.8600000013,539112.7499999208]},"geometry_name":"geom","properties":{"PRECINCT":"6-20","LOCATION":"PATUXENT VALLEY MIDDLE SCHOOL","ROOM":"CAFETERIA","ADDRESS":"9151 VOLLMERHAUSEN RD","CITY":"Jessup","ZIP":"20794"}},{"type":"Feature","id":"Voting_Locations.95","geometry":{"type":"Point","coordinates":[1365833.7900000014,560609.8049999246]},"geometry_name":"geom","properties":{"PRECINCT":"6-21","LOCATION":"LONG REACH HIGH SCHOOL","ROOM":"CAFETERIA","ADDRESS":"6101 OLD DOBBIN LN","CITY":"Columbia","ZIP":"21045"}},{"type":"Feature","id":"Voting_Locations.96","geometry":{"type":"Point","coordinates":[1356718.5000000014,555329.2349999293]},"geometry_name":"geom","properties":{"PRECINCT":"6-22","LOCATION":"LAKE ELKHORN MIDDLE SCHOOL","ROOM":"CAFETERIA","ADDRESS":"6680 CRADLEROCK WAY","CITY":"Columbia","ZIP":"21045"}},{"type":"Feature","id":"Voting_Locations.97","geometry":{"type":"Point","coordinates":[1351867.5600000003,546652.6499999217]},"geometry_name":"geom","properties":{"PRECINCT":"6-23","LOCATION":"HAMMOND HIGH SCHOOL","ROOM":"CAFETERIA","ADDRESS":"8800 GUILFORD RD","CITY":"Columbia","ZIP":"21046"}},{"type":"Feature","id":"Voting_Locations.98","geometry":{"type":"Point","coordinates":[1352725.0799999994,538545.5699999298]},"geometry_name":"geom","properties":{"PRECINCT":"6-24","LOCATION":"MURRAY HILL MIDDLE SCHOOL","ROOM":"CAFETERIA","ADDRESS":"9989 WINTER SUN RD","CITY":"Laurel","ZIP":"20723"}},{"type":"Feature","id":"Voting_Locations.99","geometry":{"type":"Point","coordinates":[1346825.9399999992,539546.1149999317]},"geometry_name":"geom","properties":{"PRECINCT":"6-25","LOCATION":"HAMMOND ELEMENTARY SCHOOL","ROOM":"GYM","ADDRESS":"8110 ALADDIN DR","CITY":"Columbia","ZIP":"20723"}},{"type":"Feature","id":"Voting_Locations.100","geometry":{"type":"Point","coordinates":[1351867.5600000003,546652.6499999217]},"geometry_name":"geom","properties":{"PRECINCT":"6-26","LOCATION":"HAMMOND HIGH SCHOOL","ROOM":"GYM","ADDRESS":"8800 GUILFORD RD","CITY":"Columbia","ZIP":"21046"}},{"type":"Feature","id":"Voting_Locations.101","geometry":{"type":"Point","coordinates":[1357724.369999999,534826.9799999273]},"geometry_name":"geom","properties":{"PRECINCT":"6-27","LOCATION":"FOREST RIDGE ELEMENTARY SCHOOL","ROOM":"GYM","ADDRESS":"9550 GORMAN RD","CITY":"Laurel","ZIP":"20723"}},{"type":"Feature","id":"Voting_Locations.102","geometry":{"type":"Point","coordinates":[1336220.2799999986,541824.5699999275]},"geometry_name":"geom","properties":{"PRECINCT":"6-28","LOCATION":"LIME KILN MIDDLE SCHOOL","ROOM":"CAFETERIA","ADDRESS":"11650 SCAGGSVILLE RD","CITY":"Fulton","ZIP":"20759"}},{"type":"Feature","id":"Voting_Locations.103","geometry":{"type":"Point","coordinates":[1365833.7900000014,560609.8049999246]},"geometry_name":"geom","properties":{"PRECINCT":"6-29","LOCATION":"LONG REACH HIGH SCHOOL","ROOM":"MAIN GYM","ADDRESS":"6101 OLD DOBBIN LN","CITY":"Columbia","ZIP":"21045"}},{"type":"Feature","id":"Voting_Locations.104","geometry":{"type":"Point","coordinates":[1368867.2399999984,546768.5399999266]},"geometry_name":"geom","properties":{"PRECINCT":"6-30","LOCATION":"RIDGLEY'S RUN COMMUNITY CENTER","ROOM":"ALL PURPOSE ROOM","ADDRESS":"8400 MISSION RD","CITY":"Jessup","ZIP":"20794"}},{"type":"Feature","id":"Voting_Locations.105","geometry":{"type":"Point","coordinates":[1361560.8899999983,560435.3699999236]},"geometry_name":"geom","properties":{"PRECINCT":"6-31","LOCATION":"JEFFERS HILL ELEMENTARY SCHOOL","ROOM":"GYM","ADDRESS":"6000 TAMAR DR","CITY":"Columbia","ZIP":"21045"}},{"type":"Feature","id":"Voting_Locations.106","geometry":{"type":"Point","coordinates":[1352149.4099999988,538486.4399999304]},"geometry_name":"geom","properties":{"PRECINCT":"6-32","LOCATION":"GORMAN CROSSING ELEMENTARY SCHOOL","ROOM":"GYM","ADDRESS":"9999 WINTER SUN RD","CITY":"Laurel","ZIP":"20723"}},{"type":"Feature","id":"Voting_Locations.107","geometry":{"type":"Point","coordinates":[1360999.8600000013,539112.7499999208]},"geometry_name":"geom","properties":{"PRECINCT":"6-33","LOCATION":"PATUXENT VALLEY MIDDLE SCHOOL","ROOM":"GYM","ADDRESS":"9151 VOLLMERHAUSEN RD","CITY":"Jessup","ZIP":"20794"}},{"type":"Feature","id":"Voting_Locations.108","geometry":{"type":"Point","coordinates":[1357149.8699999996,528468.5549999219]},"geometry_name":"geom","properties":{"PRECINCT":"6-34","LOCATION":"LAUREL WOODS ELEMENTARY SCHOOL","ROOM":"CAFETERIA","ADDRESS":"9250 NORTH LAUREL RD","CITY":"Laurel","ZIP":"20723"}},{"type":"Feature","id":"Voting_Locations.109","geometry":{"type":"Point","coordinates":[1352725.0799999994,538545.5699999298]},"geometry_name":"geom","properties":{"PRECINCT":"6-35","LOCATION":"MURRAY HILL MIDDLE SCHOOL","ROOM":"GYM","ADDRESS":"9989 WINTER SUN RD","CITY":"Laurel","ZIP":"20723"}},{"type":"Feature","id":"Voting_Locations.110","geometry":{"type":"Point","coordinates":[1389147.1199999985,563041.8149999261]},"geometry_name":"geom","properties":{"PRECINCT":"1-16","LOCATION":"ELKRIDGE LANDING MIDDLE SCHOOL","ROOM":"GYM","ADDRESS":"7085 MONTGOMERY RD","CITY":"Elkridge","ZIP":"21075"}},{"type":"Feature","id":"Voting_Locations.111","geometry":{"type":"Point","coordinates":[1389141.2399999986,563519.7599999255]},"geometry_name":"geom","properties":{"PRECINCT":"1-17","LOCATION":"ELKRIDGE ELEMENTARY SCHOOL","ROOM":"GYM","ADDRESS":"7075 MONTGOMERY RD","CITY":"Elkridge","ZIP":"21075"}},{"type":"Feature","id":"Voting_Locations.112","geometry":{"type":"Point","coordinates":[1389147.1200000017,563041.8299999188]},"geometry_name":"geom","properties":{"PRECINCT":"1-18","LOCATION":"ELKRIDGE LANDING MIDDLE SCHOOL","ROOM":"GYM","ADDRESS":"7085 MONTGOMERY RD","CITY":"Elkridge","ZIP":"21075"}},{"type":"Feature","id":"Voting_Locations.113","geometry":{"type":"Point","coordinates":[1376378.19,569838.9599999278]},"geometry_name":"geom","properties":{"PRECINCT":"1-19","LOCATION":"ILCHESTER ELEMENTARY SCHOOL","ROOM":"GYM","ADDRESS":"4981 ILCHESTER RD","CITY":"Ellicott City","ZIP":"21043"}},{"type":"Feature","id":"Voting_Locations.114","geometry":{"type":"Point","coordinates":[1376378.19,569838.9599999278]},"geometry_name":"geom","properties":{"PRECINCT":"1-20","LOCATION":"ILCHESTER ELEMENTARY SCHOOL","ROOM":"GYM","ADDRESS":"4981 ILCHESTER RD","CITY":"Ellicott City","ZIP":"21043"}},{"type":"Feature","id":"Voting_Locations.115","geometry":{"type":"Point","coordinates":[1384374.9000000015,559038.2849999303]},"geometry_name":"geom","properties":{"PRECINCT":"1-21","LOCATION":"DUCKETTS LANE ELEMENTARY SCHOOL","ROOM":"CAFETERIA","ADDRESS":"6501 DUCKETTS LN","CITY":"Elkridge","ZIP":"21075"}},{"type":"Feature","id":"Voting_Locations.116","geometry":{"type":"Point","coordinates":[1349856.660000001,578560.9349999246]},"geometry_name":"geom","properties":{"PRECINCT":"3-04","LOCATION":"BURLEIGH MANOR MIDDLE SCHOOL","ROOM":"CAFETERIA","ADDRESS":"4200 CENTENNIAL LN","CITY":"Ellicott City","ZIP":"21042"}},{"type":"Feature","id":"Voting_Locations.117","geometry":{"type":"Point","coordinates":[1349856.660000001,578560.9349999246]},"geometry_name":"geom","properties":{"PRECINCT":"2-26","LOCATION":"BURLEIGH MANOR MIDDLE SCHOOL","ROOM":"CAFETERIA","ADDRESS":"4200 CENTENNIAL LN","CITY":"Ellicott City","ZIP":"21042"}},{"type":"Feature","id":"Voting_Locations.118","geometry":{"type":"Point","coordinates":[1324038.4199999997,546331.3049999322]},"geometry_name":"geom","properties":{"PRECINCT":"5-24","LOCATION":"SCHOOLEY MILL PARK","ROOM":"MULTI-PURPOSE ROOM","ADDRESS":"12975 HALL SHOP RD","CITY":"Highland","ZIP":"20777"}},{"type":"Feature","id":"Voting_Locations.119","geometry":{"type":"Point","coordinates":[1346116.4099999985,554339.7599999321]},"geometry_name":"geom","properties":{"PRECINCT":"5-17","LOCATION":"ALTHOLTON HIGH SCHOOL","ROOM":"CAFETERIA","ADDRESS":"6520 FREETOWN RD","CITY":"Columbia","ZIP":"21044"}}],"crs":{"type":"name","properties":{"name":"urn:ogc:def:crs:EPSG::2248"}}}